NORAD_CAT_ID,OBJECT_NAME,OBJECT_TYPE,EPOCH,MEAN_MOTION,ECCENTRICITY,INCLINATION,RA_OF_ASC_NODE,ARG_OF_PERICENTER,MEAN_ANOMALY,BSTAR,MEAN_MOTION_DOT,MEAN_MOTION_DDOT,TLE_LINE0,TLE_LINE1,TLE_LINE2,SEMIMAJOR_AXIS,PERIOD,APOGEE,PERIGEE,DECAYED
50161.0,STARLINK-3304,PAYLOAD,2022-01-02 16:00:00,15.80637506,0.0001032,53.2179,290.7878,81.5294,143.3412,-0.0044182,-0.00788525,0.0,0 STARLINK-3304,1 50161U 21125F   22002.66667824 -.00788525  00000-0 -44182-2 0  9993,2 50161  53.2179 290.7878 0001032  81.5294 143.3412 15.80637506  2885,6706.774,91.102,329.331,327.94699999999995,0.0
50161.0,STARLINK-3304,PAYLOAD,2022-01-06 08:45:45,15.75233826,0.0004191,53.2202,272.3799,0.05,0.0521,-0.00093985,-0.00142371,0.0,0 STARLINK-3304,1 50161U 21125F   22006.36510977 -.00142371  00000-0 -93985-3 0  9999,2 50161  53.2202 272.3799 0004191   0.0500   0.0521 15.75233826  5799,6722.103,91.415,346.785,341.151,0.0
50161.0,STARLINK-3304,PAYLOAD,2022-01-06 13:19:46,15.75390618,0.0002165,53.2203,271.4338,265.6855,94.3919,-0.00074537,-0.0011413,0.0,0 STARLINK-3304,1 50161U 21125F   22006.55539533 -.00114130  00000-0 -74537-3 0  9993,2 50161  53.2203 271.4338 0002165 265.6855  94.3919 15.75390618  6308,6721.656999999997,91.406,344.977,342.06699999999995,0.0
50161.0,STARLINK-3304,PAYLOAD,2022-01-06 20:57:32,15.74061476,0.0001658,53.2204,269.8625,124.8366,235.2811,-0.002526,-0.00353545,0.0,0 STARLINK-3304,1 50161U 21125F   22006.87329387 -.00353545  00000-0 -25260-2 0  9995,2 50161  53.2204 269.8625 0001658 124.8366 235.2811 15.74061476  5872,6725.44,91.483,348.42,346.19,0.0
50161.0,STARLINK-3304,PAYLOAD,2022-01-07 00:00:30,15.73827015,0.0001815,53.2197,269.2329,79.9836,280.1389,-0.0026281,-0.00363684,0.0,0 STARLINK-3304,1 50161U 21125F   22007.00034985 -.00363684  00000-0 -26281-2 0  9997,2 50161  53.2197 269.2329 0001815  79.9836 280.1389 15.73827015  5894,6726.108,91.497,349.194,346.75199999999984,0.0
50161.0,STARLINK-3304,PAYLOAD,2022-01-07 07:37:52,15.73567529,0.0001783,53.2201,267.6622,91.8028,268.3197,-0.0018758,-0.00259998,0.0,0 STARLINK-3304,1 50161U 21125F   22007.31797353 -.00259998  00000-0 -18758-2 0  9998,2 50161  53.2201 267.6622 0001783  91.8028 268.3197 15.73567529  5940,6726.848000000001,91.512,349.912,347.51300000000015,0.0
50161.0,STARLINK-3304,PAYLOAD,2022-01-07 12:11:44,15.74867377,0.0011213,53.2199,266.7169,299.3479,60.6422,0.0028546,0.00455003,0.0,0 STARLINK-3304,1 50161U 21125F   22007.50815629  .00455003  00000-0  28546-2 0  9995,2 50161  53.2199 266.7169 0011213 299.3479  60.6422 15.74867377  6452,6723.146,91.436,352.5490000000001,337.472,0.0
50161.0,STARLINK-3304,PAYLOAD,2022-01-09 14:00:01,15.73185808,9.96e-05,53.219,256.4533,100.7568,136.6092,0.00051784,0.00072641,0.0,0 STARLINK-3304,1 50161U 21125F   22009.58334491  .00072641  00000-0  51784-3 0  9992,2 50161  53.2190 256.4533 0000996 100.7568 136.6092 15.73185808  6306,6727.936,91.534,350.471,349.131,0.0
50161.0,STARLINK-3304,PAYLOAD,2022-01-09 22:00:00,15.73243419,0.0001077,53.2188,254.8056,89.5809,236.7335,8.6965e-06,6.03e-06,0.0,0 STARLINK-3304,1 50161U 21125F   22009.91667824  .00000603  00000-0  86965-5 0  9998,2 50161  53.2188 254.8056 0001077  89.5809 236.7335 15.73243419  3737,6727.771,91.531,350.361,348.912,0.0
50161.0,STARLINK-3304,PAYLOAD,2022-01-10 06:00:00,15.732717,0.0001116,53.2184,253.1561,86.2822,329.0018,-0.00072449,-0.00101388,0.0,0 STARLINK-3304,1 50161U 21125F   22010.25001157 -.00101388  00000-0 -72449-3 0  9992,2 50161  53.2184 253.1561 0001116  86.2822 329.0018 15.73271700  6404,6727.691,91.529,350.307,348.805,0.0
50161.0,STARLINK-3304,PAYLOAD,2022-01-10 14:00:01,15.73195777,0.0001129,53.2185,251.5049,102.9613,41.2952,-0.00024095,-0.00034291,0.0,0 STARLINK-3304,1 50161U 21125F   22010.58334491 -.00034291  00000-0 -24095-3 0  9990,2 50161  53.2185 251.5049 0001129 102.9613  41.2952 15.73195777  3727,6727.906999999997,91.533,350.532,349.01300000000015,0.0
50161.0,STARLINK-3304,PAYLOAD,2022-01-10 22:00:00,15.73165755,0.0001022,53.2189,249.8575,91.8136,141.3513,7.8451e-05,0.00010388,0.0,0 STARLINK-3304,1 50161U 21125F   22010.91667824  .00010388  00000-0  78451-4 0  9991,2 50161  53.2189 249.8575 0001022  91.8136 141.3513 15.73165755  6511,6727.993,91.535,350.545,349.17,0.0
50161.0,STARLINK-3304,PAYLOAD,2022-01-11 14:00:01,15.73176769,0.0001002999999999,53.219,246.557,100.3073,310.6504,0.00043035,0.00060149,0.0,0 STARLINK-3304,1 50161U 21125F   22011.58334491  .00060149  00000-0  43035-3 0  9995,2 50161  53.2190 246.5570 0001003 100.3073 310.6504 15.73176769  3725,6727.9609999999975,91.535,350.501,349.152,0.0
50161.0,STARLINK-3304,PAYLOAD,2022-01-11 22:00:00,15.73223773,0.0001067,53.2187,244.9096,86.9228,52.9657,-1.7188e-05,-3.033e-05,0.0,0 STARLINK-3304,1 50161U 21125F   22011.91667824 -.00003033  00000-0 -17188-4 0  9993,2 50161  53.2187 244.9096 0001067  86.9228  52.9657 15.73223773  6666,6727.8269999999975,91.532,350.41,348.975,0.0
50161.0,STARLINK-3304,PAYLOAD,2022-01-12 14:00:01,15.73171524,0.0001244,53.2184,241.6089,100.4187,217.3618,0.00046565,0.00065159,0.0,0 STARLINK-3304,1 50161U 21125F   22012.58334491  .00065159  00000-0  46565-3 0  9993,2 50161  53.2184 241.6089 0001244 100.4187 217.3618 15.73171524  3737,6727.976,91.535,350.67800000000005,349.004,0.0
50161.0,STARLINK-3304,PAYLOAD,2022-01-12 16:00:00,15.73198111,0.000127,53.2186,241.197,99.9341,330.0669,0.00021131,0.00029136,0.0,0 STARLINK-3304,1 50161U 21125F   22012.66667824  .00029136  00000-0  21131-3 0  9998,2 50161  53.2186 241.1970 0001270  99.9341 330.0669 15.73198111  6784,6727.901,91.533,350.62,348.911,0.0
50161.0,STARLINK-3304,PAYLOAD,2022-01-12 22:00:00,15.73208618,0.0001255,53.2186,239.9617,89.5158,317.1782,8.6184e-05,0.00011496,0.0,0 STARLINK-3304,1 50161U 21125F   22012.91667824  .00011496  00000-0  86184-4 0  9996,2 50161  53.2186 239.9617 0001255  89.5158 317.1782 15.73208618  6822,6727.871,91.533,350.58,348.891,0.0
50161.0,STARLINK-3304,PAYLOAD,2022-01-13 14:00:01,15.73172093,0.0001466,53.2187,236.661,96.4372,128.1413,0.00037463,0.00052221,0.0,0 STARLINK-3304,1 50161U 21125F   22013.58334491  .00052221  00000-0  37463-3 0  9997,2 50161  53.2187 236.6610 0001466  96.4372 128.1413 15.73172093  6939,6727.975,91.535,350.826,348.853,0.0
50161.0,STARLINK-3304,PAYLOAD,2022-01-13 22:00:00,15.73199655,0.0001496999999999,53.2184,235.0137,86.2231,227.2752,0.00012656,0.00017178,0.0,0 STARLINK-3304,1 50161U 21125F   22013.91667824  .00017178  00000-0  12656-3 0  9992,2 50161  53.2184 235.0137 0001497  86.2231 227.2752 15.73199655  3700,6727.896,91.533,350.76800000000014,348.754,0.0
50161.0,STARLINK-3304,PAYLOAD,2022-01-14 06:00:00,15.73360226,0.0001219,53.2174,233.3562,87.2556,315.1698,-0.0044438,-0.0058665,0.0,0 STARLINK-3304,1 50161U 21125F   22014.25001157 -.00586650  00000-0 -44438-2 0  9991,2 50161  53.2174 233.3562 0001219  87.2556 315.1698 15.73360226  7035,6727.438,91.524,350.12300000000016,348.483,0.0
50161.0,STARLINK-3304,PAYLOAD,2022-01-14 14:00:01,15.73222395,0.0001281999999999,53.218,231.713,100.2046,31.1929,-0.00021263,-0.00030382,0.0,0 STARLINK-3304,1 50161U 21125F   22014.58334491 -.00030382  00000-0 -21263-3 0  9995,2 50161  53.2180 231.7130 0001282 100.2046  31.1929 15.73222395  7086,6727.831,91.532,350.559,348.834,0.0
50161.0,STARLINK-3304,PAYLOAD,2022-01-14 22:00:00,15.73196497,0.0001123,53.2183,230.0632,85.7115,134.6371,0.00020323,0.00027993,0.0,0 STARLINK-3304,1 50161U 21125F   22014.91667824  .00027993  00000-0  20323-3 0  9999,2 50161  53.2183 230.0632 0001123  85.7115 134.6371 15.73196497  3726,6727.905,91.533,350.526,349.015,0.0
50161.0,STARLINK-3304,PAYLOAD,2022-01-15 06:00:00,15.73254983,0.0001071,53.2177,228.4065,92.5545,216.7594,-0.0044136,-0.00580432,0.0,0 STARLINK-3304,1 50161U 21125F   22015.25001157 -.00580432  00000-0 -44136-2 0  9999,2 50161  53.2177 228.4065 0001071  92.5545 216.7594 15.73254983  7194,6727.738,91.53,350.324,348.8830000000001,0.0
50161.0,STARLINK-3304,PAYLOAD,2022-01-15 14:00:01,15.73077154,0.0001062,53.2176,226.7505,89.6303,308.4318,-0.0041378,-0.00542468,0.0,0 STARLINK-3304,1 50161U 21125F   22015.58335648 -.00542468  00000-0 -41378-2 0  9992,2 50161  53.2176 226.7505 0001062  89.6303 308.4318 15.73077154  7244,6728.245,91.54,350.825,349.396,0.0
50161.0,STARLINK-3304,PAYLOAD,2022-01-15 22:00:01,15.72691305,0.000118,53.2176,225.1014,70.3656,56.2524,-0.005211,-0.00662369,0.0,0 STARLINK-3304,1 50161U 21125F   22015.91668981 -.00662369  00000-0 -52110-2 0  9997,2 50161  53.2176 225.1014 0001180  70.3656  56.2524 15.72691305  7292,6729.346,91.563,352.005,350.417,0.0
50161.0,STARLINK-3304,PAYLOAD,2022-01-16 14:00:01,15.71757479,0.0001102,53.2175,221.8036,88.4807,213.5753,-0.0054036,-0.00660142,0.0,0 STARLINK-3304,1 50161U 21125F   22016.58334491 -.00660142  00000-0 -54036-2 0  9993,2 50161  53.2175 221.8036 0001102  88.4807 213.5753 15.71757479  3719,6732.011,91.617,354.61800000000005,353.134,0.0
50161.0,STARLINK-3304,PAYLOAD,2022-01-16 22:00:00,15.71292302,0.0001049,53.2174,220.1597,74.5457,314.4189,-0.0055427,-0.00663604,0.0,0 STARLINK-3304,1 50161U 21125F   22016.91667824 -.00663604  00000-0 -55427-2 0  9990,2 50161  53.2174 220.1597 0001049  74.5457 314.4189 15.71292302  3712,6733.34,91.644,355.911,354.49800000000016,0.0
50161.0,STARLINK-3304,PAYLOAD,2022-01-17 00:00:00,15.71169203,0.0001148,53.2174,219.7484,70.6036,70.0032,-0.0054724,-0.00652661,0.0,0 STARLINK-3304,1 50161U 21125F   22017.00001157 -.00652661  00000-0 -54724-2 0  9992,2 50161  53.2174 219.7484 0001148  70.6036  70.0032 15.71169203  7462,6733.691,91.651,356.329,354.783,0.0
50161.0,STARLINK-3304,PAYLOAD,2022-01-17 14:00:01,15.70357585,0.0001202,53.2177,216.8686,88.7733,112.3312,-0.0057277,-0.00659584,0.0,0 STARLINK-3304,1 50161U 21125F   22017.58334491 -.00659584  00000-0 -57277-2 0  9992,2 50161  53.2177 216.8686 0001202  88.7733 112.3312 15.70357585  3707,6736.011,91.699,358.686,357.06699999999995,0.0
